NORAD_CAT_ID,OBJECT_NAME,OBJECT_TYPE,EPOCH,MEAN_MOTION,ECCENTRICITY,INCLINATION,RA_OF_ASC_NODE,ARG_OF_PERICENTER,MEAN_ANOMALY,BSTAR,MEAN_MOTION_DOT,MEAN_MOTION_DDOT,TLE_LINE0,TLE_LINE1,TLE_LINE2,SEMIMAJOR_AXIS,PERIOD,APOGEE,PERIGEE,DECAYED
52538.0,STARLINK-3933,PAYLOAD,2024-02-15 08:19:43,15.08840084,0.000169,53.2179,271.0107,78.5857,281.5325,5.0424e-05,5.15e-06,0.0,0 STARLINK-3933,1 52538U 22051F   24046.34703599  .00000515  00000-0  50424-4 0  9999,2 52538  53.2179 271.0107 0001690  78.5857 281.5325 15.08840084 97781,6917.88,95.438,540.914,538.576,0.0
52538.0,STARLINK-3933,PAYLOAD,2024-02-15 19:27:26,15.08834322,0.0001908,53.217,268.928,82.7601,277.3608,0.0001137,1.522e-05,0.0,0 STARLINK-3933,1 52538U 22051F   24046.81072196  .00001522  00000-0  11370-3 0  9998,2 52538  53.2170 268.9280 0001908  82.7601 277.3608 15.08834322 97858,6917.898,95.438,541.083,538.443,0.0
52538.0,STARLINK-3933,PAYLOAD,2024-02-15 21:02:49,15.08836041,0.0001464,53.2155,268.6311,88.1272,271.9888,3.7272e-05,3.05e-06,0.0,0 STARLINK-3933,1 52538U 22051F   24046.87696150  .00000305  00000-0  37272-4 0  9994,2 52538  53.2155 268.6311 0001464  88.1272 271.9888 15.08836041 97797,6917.892,95.438,540.77,538.745,0.0
52538.0,STARLINK-3933,PAYLOAD,2024-02-16 08:10:30,15.08842382,0.0001532,53.2162,266.5492,89.9022,270.2145,8.2651e-05,1.028e-05,0.0,0 STARLINK-3933,1 52538U 22051F   24047.34063646  .00001028  00000-0  82651-4 0  9999,2 52538  53.2162 266.5492 0001532  89.9022 270.2145 15.08842382 97939,6917.873,95.437,540.798,538.678,0.0
52538.0,STARLINK-3933,PAYLOAD,2024-02-16 20:53:35,15.08852005,0.0001632,53.216,264.1694,95.6185,264.4993,9.8137e-05,1.275e-05,0.0,0 STARLINK-3933,1 52538U 22051F   24047.87054875  .00001275  00000-0  98137-4 0  9991,2 52538  53.2160 264.1694 0001632  95.6185 264.4993 15.08852005 97940,6917.844,95.437,540.838,538.58,0.0
52538.0,STARLINK-3933,PAYLOAD,2024-02-17 20:44:23,15.08838128,0.0001633,53.2151,259.709,96.2891,263.8287,0.00011496,1.542e-05,0.0,0 STARLINK-3933,1 52538U 22051F   24048.86415724  .00001542  00000-0  11496-3 0  9994,2 52538  53.2151 259.7090 0001633  96.2891 263.8287 15.08838128 98166,6917.886,95.438,540.881,538.621,0.0
52538.0,STARLINK-3933,PAYLOAD,2024-02-17 23:55:09,15.0883962,0.0001587,53.2158,259.1139,96.0703,264.047,7.0318e-05,8.31e-06,0.0,0 STARLINK-3933,1 52538U 22051F   24048.99663675  .00000831  00000-0  70318-4 0  9997,2 52538  53.2158 259.1139 0001587  96.0703 264.0470 15.08839620 98119,6917.882,95.438,540.844,538.649,0.0
52538.0,STARLINK-3933,PAYLOAD,2024-02-18 20:35:09,15.08844124,0.0001409,53.216,255.2495,96.7559,263.3593,7.3212e-05,8.78e-06,0.0,0 STARLINK-3933,1 52538U 22051F   24049.85775399  .00000878  00000-0  73212-4 0  9997,2 52538  53.2160 255.2495 0001409  96.7559 263.3593 15.08844124 98240,6917.868,95.437,540.708,538.758,0.0
52538.0,STARLINK-3933,PAYLOAD,2024-02-19 06:07:28,15.08844978,0.0001394,53.2158,253.465,106.8955,253.219,-3.5343e-05,-8.5e-06,0.0,0 STARLINK-3933,1 52538U 22051F   24050.25519323 -.00000850  00000-0 -35343-4 0  9991,2 52538  53.2158 253.4650 0001394 106.8955 253.2190 15.08844978 98378,6917.865,95.437,540.695,538.766,0.0
52538.0,STARLINK-3933,PAYLOAD,2024-02-19 14:04:25,15.08830362,0.0001622,53.217,251.9811,103.99,256.1273,0.00010035,1.309e-05,0.0,0 STARLINK-3933,1 52538U 22051F   24050.58640288  .00001309  00000-0  10035-3 0  9990,2 52538  53.2170 251.9811 0001622 103.9900 256.1273 15.08830362 98350,6917.91,95.438,540.897,538.653,0.0
52538.0,STARLINK-3933,PAYLOAD,2024-02-19 20:25:58,15.08830773,0.0001565,53.2167,250.791,100.9519,259.165,2.0887e-05,4.4e-07,0.0,0 STARLINK-3933,1 52538U 22051F   24050.85136627  .00000044  00000-0  20887-4 0  9999,2 52538  53.2167 250.7910 0001565 100.9519 259.1650 15.08830773 98462,6917.909,95.438,540.856,538.691,0.0
52538.0,STARLINK-3933,PAYLOAD,2024-02-19 22:01:21,15.08831657,0.000162,53.2173,250.4932,99.8181,260.2994,2.3443e-05,8.5e-07,0.0,0 STARLINK-3933,1 52538U 22051F   24050.91760500  .00000085  00000-0  23443-4 0  9995,2 52538  53.2173 250.4932 0001620  99.8181 260.2994 15.08831657 98403,6917.906,95.438,540.892,538.65,0.0
52538.0,STARLINK-3933,PAYLOAD,2024-02-20 12:19:48,15.08841792,0.0001683,53.2168,247.8155,94.7949,265.3235,4.248e-05,3.88e-06,0.0,0 STARLINK-3933,1 52538U 22051F   24051.51375977  .00000388  00000-0  42480-4 0  9990,2 52538  53.2168 247.8155 0001683  94.7949 265.3235 15.08841792 98561,6917.875,95.437,540.904,538.576,0.0
52538.0,STARLINK-3933,PAYLOAD,2024-02-20 20:16:44,15.08846275,0.00015,53.2166,246.3289,96.2342,263.8821,0.00010382,1.365e-05,0.0,0 STARLINK-3933,1 52538U 22051F   24051.84495536  .00001365  00000-0  10382-3 0  9991,2 52538  53.2166 246.3289 0001500  96.2342 263.8821 15.08846275 98546,6917.861,95.437,540.764,538.689,0.0
52538.0,STARLINK-3933,PAYLOAD,2024-02-21 05:49:03,15.0884436,0.0001397,53.2159,244.5438,89.3257,270.7895,8.2294e-05,1.022e-05,0.0,0 STARLINK-3933,1 52538U 22051F   24052.24239663  .00001022  00000-0  82294-4 0  9995,2 52538  53.2159 244.5438 0001397  89.3257 270.7895 15.08844360 98604,6917.867,95.437,540.698,538.766,0.0
52538.0,STARLINK-3933,PAYLOAD,2024-02-21 20:07:31,15.08841237,0.0001423,53.2158,241.8672,85.3722,274.7433,0.0001218,1.651e-05,0.0,0 STARLINK-3933,1 52538U 22051F   24052.83855857  .00001651  00000-0  12180-3 0  9993,2 52538  53.2158 241.8672 0001423  85.3722 274.7433 15.08841237 98765,6917.877,95.437,540.726,538.757,0.0
52538.0,STARLINK-3933,PAYLOAD,2024-02-22 12:01:22,15.08843207,0.0001513,53.2162,238.8948,85.7738,274.3427,2.6031e-05,1.26e-06,0.0,0 STARLINK-3933,1 52538U 22051F   24053.50095966  .00000126  00000-0  26031-4 0  9992,2 52538  53.2162 238.8948 0001513  85.7738 274.3427 15.08843207 98794,6917.871,95.437,540.782,538.689,0.0
52538.0,STARLINK-3933,PAYLOAD,2024-02-22 19:58:18,15.08843892,0.0001481,53.216,237.4082,85.6989,274.4172,2.2805e-05,7.5e-07,0.0,0 STARLINK-3933,1 52538U 22051F   24053.83215843  .00000075  00000-0  22805-4 0  9994,2 52538  53.2160 237.4082 0001481  85.6989 274.4172 15.08843892 98841,6917.868,95.437,540.758,538.709,0.0
52538.0,STARLINK-3933,PAYLOAD,2024-02-23 11:52:10,15.08838566,0.0001435,53.2149,234.4332,84.8564,275.2592,1.7229e-05,-1.4e-07,0.0,0 STARLINK-3933,1 52538U 22051F   24054.49456089 -.00000014  00000-0  17229-4 0  9994,2 52538  53.2149 234.4332 0001435  84.8564 275.2592 15.08838566 99019,6917.885,95.438,540.742,538.757,0.0
52538.0,STARLINK-3933,PAYLOAD,2024-02-23 18:13:42,15.08839965,0.0001434,53.2151,233.2436,85.6399,274.4757,2.7422e-05,1.48e-06,0.0,0 STARLINK-3933,1 52538U 22051F   24054.75951996  .00000148  00000-0  27422-4 0  9993,2 52538  53.2151 233.2436 0001434  85.6399 274.4757 15.08839965 98981,6917.88,95.438,540.738,538.753,0.0
52538.0,STARLINK-3933,PAYLOAD,2024-02-24 05:21:24,15.08840005,0.000142,53.2154,231.1619,86.2666,273.8489,4.9644e-05,5.02e-06,0.0,0 STARLINK-3933,1 52538U 22051F   24055.22319962  .00000502  00000-0  49644-4 0  9991,2 52538  53.2154 231.1619 0001420  86.2666 273.8489 15.08840005 99054,6917.88,95.438,540.728,538.763,0.0
52538.0,STARLINK-3933,PAYLOAD,2024-02-24 18:04:29,15.08839772,0.0001437,53.2149,228.7828,85.5534,274.5622,4.9601e-05,5.02e-06,0.0,0 STARLINK-3933,1 52538U 22051F   24055.75312027  .00000502  00000-0  49601-4 0  9997,2 52538  53.2149 228.7828 0001437  85.5534 274.5622 15.08839772 99209,6917.881,95.438,540.74,538.752,0.0
52538.0,STARLINK-3933,PAYLOAD,2024-02-25 14:44:30,15.08840213,0.000148,53.2156,224.9169,84.4495,275.6666,7.7903e-05,9.52e-06,0.0,0 STARLINK-3933,1 52538U 22051F   24056.61423962  .00000952  00000-0  77903-4 0  9999,2 52538  53.2156 224.9169 0001480  84.4495 275.6666 15.08840213 99263,6917.88,95.438,540.769,538.721,0.0
52538.0,STARLINK-3933,PAYLOAD,2024-02-25 17:55:16,15.08843709,0.0001397,53.2159,224.3216,88.0074,272.1078,0.00010685,1.413e-05,0.0,0 STARLINK-3933,1 52538U 22051F   24056.74671647  .00001413  00000-0  10685-3 0  9994,2 52538  53.2159 224.3216 0001397  88.0074 272.1078 15.08843709 99287,6917.869,95.437,540.7,538.768,0.0
52538.0,STARLINK-3933,PAYLOAD,2024-02-26 11:24:31,15.08837384,0.000142,53.2169,221.0509,86.0859,274.0295,3.9502e-05,3.41e-06,0.0,0 STARLINK-3933,1 52538U 22051F   24057.47536370  .00000341  00000-0  39502-4 0  9997,2 52538  53.2169 221.0509 0001420  86.0859 274.0295 15.08837384 99467,6917.888,95.438,540.736,538.771,0.0
52538.0,STARLINK-3933,PAYLOAD,2024-02-26 14:35:17,15.08836939,0.0001358,53.2161,220.4566,84.6592,275.4555,4.2056e-05,3.81e-06,0.0,0 STARLINK-3933,1 52538U 22051F   24057.60784395  .00000381  00000-0  42056-4 0  9996,2 52538  53.2161 220.4566 0001358  84.6592 275.4555 15.08836939 99417,6917.89,95.438,540.694,538.815,0.0
52538.0,STARLINK-3933,PAYLOAD,2024-02-26 16:10:40,15.08838693,0.0001368,53.2163,220.1585,88.5112,271.6037,6.1836e-05,6.96e-06,0.0,0 STARLINK-3933,1 52538U 22051F   24057.67408246  .00000696  00000-0  61836-4 0  9997,2 52538  53.2163 220.1585 0001368  88.5112 271.6037 15.08838693 99422,6917.884,95.438,540.696,538.803,0.0
52538.0,STARLINK-3933,PAYLOAD,2024-02-27 14:26:05,15.08834326,0.0001538,53.2162,215.9979,105.2997,254.8165,2.1021e-05,4.7e-07,0.0,0 STARLINK-3933,1 52538U 22051F   24058.60144795  .00000047  00000-0  21021-4 0  9999,2 52538  53.2162 215.9979 0001538 105.2997 254.8165 15.08834326 99566,6917.898,95.438,540.827,538.699,0.0
52538.0,STARLINK-3933,PAYLOAD,2024-02-27 16:01:28,15.08837306,0.0001381,53.2165,215.7,90.1789,269.9362,-2.6236e-05,-7.05e-06,0.0,0 STARLINK-3933,1 52538U 22051F   24058.66768826 -.00000705  00000-0 -26236-4 0  9998,2 52538  53.2165 215.7000 0001381  90.1789 269.9362 15.08837306 99645,6917.889,95.438,540.709,538.798,0.0
52538.0,STARLINK-3933,PAYLOAD,2024-02-28 03:09:10,15.0883809,0.0001378,53.2163,213.6181,87.4041,272.7109,-3.663e-05,-8.71e-06,0.0,0 STARLINK-3933,1 52538U 22051F   24059.13136901 -.00000871  00000-0 -36630-4 0  9997,2 52538  53.2163 213.6181 0001378  87.4041 272.7109 15.08838090 99648,6917.886,95.438,540.705,538.798,0.0
